0 COSMOS 2251 DEB
1 34795U 93036AAY 13282.32410848  .00025176  00000-0  32946-2 0   285
2 34795 073.9486 033.1897 0178692 342.1894 047.6682 14.69720734244299
0 COSMOS 2251 DEB
1 34795U 93036AAY 13283.02198037  .00020368  00000-0  26663-2 0   294
2 34795 073.9482 031.8288 0178742 340.6060 140.1898 14.69741017244394
0 COSMOS 2251 DEB
1 34795U 93036AAY 13283.69237623  .00022767  00000-0  29777-2 0   308
2 34795 073.9489 030.5229 0178746 339.1838 087.2822 14.69755192244490
0 COSMOS 2251 DEB
1 34795U 93036AAY 13285.59657642  .00016229  00000-0  21228-2 0   327
2 34795 073.9488 026.8089 0178787 334.9967 082.8752 14.69807709244778
0 COSMOS 2251 DEB
1 34795U 93036AAY 13286.61813894  .00016513  00000-0  21583-2 0   335
2 34795 073.9491 024.8171 0178798 332.7714 088.3413 14.69835017244925
0 COSMOS 2251 DEB
1 34795U 93036AAY 13287.71934368  .00023400  00000-0  30506-2 0   346
2 34795 073.9495 022.6696 0178849 330.3762 155.3339 14.69868616245082
0 COSMOS 2251 DEB
1 34795U 93036AAY 13288.94318406  .00024438  00000-0  31811-2 0   354
2 34795 073.9490 020.2816 0178806 327.7056 151.4656 14.69924837245261
0 COSMOS 2251 DEB
1 34795U 93036AAY 13289.96308225  .00022148  00000-0  28825-2 0   363
2 34795 073.9498 018.2938 0178738 325.5242 148.5238 14.69958128245418
0 COSMOS 2251 DEB
1 34795U 93036AAY 13291.31507748  .00020840  00000-0  27093-2 0   370
2 34795 073.9495 015.6570 0178757 322.5562 103.2436 14.70010086245615
0 COSMOS 2251 DEB
1 34795U 93036AAY 13292.60777928  .00021586  00000-0  28027-2 0   389
2 34795 073.9492 013.1357 0178754 319.7521 104.3873 14.70056324245801
0 COSMOS 2251 DEB
1 34795U 93036AAY 13293.64067138  .00022774  00000-0  29540-2 0   391
2 34795 073.9488 011.1207 0178712 317.5124 170.7341 14.70090826245955
0 COSMOS 2251 DEB
1 34795U 93036AAY 13294.66591380  .00027192  00000-0  35210-2 0   407
2 34795 073.9486 009.1204 0178698 315.3080 196.7104 14.70126189246102
0 COSMOS 2251 DEB
1 34795U 93036AAY 13295.88477087  .00026170  00000-0  33855-2 0   418
2 34795 073.9483 006.7421 0178704 312.6569 167.5687 14.70171012246289
